NORAD_CAT_ID,OBJECT_NAME,OBJECT_TYPE,EPOCH,MEAN_MOTION,ECCENTRICITY,INCLINATION,RA_OF_ASC_NODE,ARG_OF_PERICENTER,MEAN_ANOMALY,BSTAR,MEAN_MOTION_DOT,MEAN_MOTION_DDOT,TLE_LINE0,TLE_LINE1,TLE_LINE2,SEMIMAJOR_AXIS,PERIOD,APOGEE,PERIGEE,DECAYED
51992.0,STARLINK-3643,PAYLOAD,2022-04-16 22:00:01,15.73067577,0.0001453999999999,53.2141,309.93,111.8636,300.8509,0.00066002,0.00092508,0.0,0 STARLINK-3643,1 51992U 22025AN  22106.91668981  .00092508  00000-0  66002-3 0  9997,2 51992  53.2141 309.9300 0001454 111.8636 300.8509 15.73067577  3699,6728.273,91.541,351.116,349.159,0.0
51992.0,STARLINK-3643,PAYLOAD,2022-04-17 14:00:01,15.73228807,0.0001293,53.214,306.6289,126.3004,104.0269,0.0005507999999999,0.00077493,0.0,0 STARLINK-3643,1 51992U 22025AN  22107.58334491  .00077493  00000-0  55080-3 0  9997,2 51992  53.2140 306.6289 0001293 126.3004 104.0269 15.73228807  3714,6727.813,91.532,350.548,348.80800000000005,0.0
51992.0,STARLINK-3643,PAYLOAD,2022-04-17 20:00:01,15.73316032,0.000121,53.2136,305.3932,111.108,95.973,-0.0009203,-0.00128459,0.0,0 STARLINK-3643,1 51992U 22025AN  22107.83334491 -.00128459  00000-0 -92030-3 0  9992,2 51992  53.2136 305.3932 0001210 111.1080  95.9730 15.73316032  7460,6727.564,91.526,350.24300000000005,348.615,0.0
51992.0,STARLINK-3643,PAYLOAD,2022-04-17 22:00:00,15.73276072,0.0001255,53.2137,304.9811,108.9773,210.3717,-0.00057855,-0.00081298,0.0,0 STARLINK-3643,1 51992U 22025AN  22107.91667824 -.00081298  00000-0 -57855-3 0  9995,2 51992  53.2137 304.9811 0001255 108.9773 210.3717 15.73276072  3704,6727.678000000001,91.529,350.38800000000015,348.699,0.0
51992.0,STARLINK-3643,PAYLOAD,2022-04-18 04:00:00,15.73215672,0.0001314,53.2131,303.7427,110.9455,185.1495,8.5998e-05,0.00011474,0.0,0 STARLINK-3643,1 51992U 22025AN  22108.16667824  .00011474  00000-0  85998-4 0  9990,2 51992  53.2131 303.7427 0001314 110.9455 185.1495 15.73215672  7529,6727.85,91.532,350.6,348.831,0.0
51992.0,STARLINK-3643,PAYLOAD,2022-04-18 14:00:01,15.73249817,0.0001283,53.2136,301.6795,123.2505,14.0481,-0.00015936,-0.00022972,0.0,0 STARLINK-3643,1 51992U 22025AN  22108.58334491 -.00022972  00000-0 -15936-3 0  9998,2 51992  53.2136 301.6795 0001283 123.2505  14.0481 15.73249817  3706,6727.753000000002,91.53,350.481,348.755,0.0
51992.0,STARLINK-3643,PAYLOAD,2022-04-18 22:00:00,15.73230961,0.0001049,53.2139,300.0319,110.4578,115.7957,0.00010628,0.00014341,0.0,0 STARLINK-3643,1 51992U 22025AN  22108.91667824  .00014341  00000-0  10628-3 0  9996,2 51992  53.2139 300.0319 0001049 110.4578 115.7957 15.73230961  3709,6727.807,91.531,350.37800000000016,348.966,0.0
51992.0,STARLINK-3643,PAYLOAD,2022-04-19 12:00:00,15.73170916,0.0001117,53.214,297.1423,119.9818,171.9621,0.00043568,0.00060892,0.0,0 STARLINK-3643,1 51992U 22025AN  22109.50001157  .00060892  00000-0  43568-3 0  9994,2 51992  53.2140 297.1423 0001117 119.9818 171.9621 15.73170916  7732,6727.978,91.535,350.595,349.092,0.0
51992.0,STARLINK-3643,PAYLOAD,2022-04-19 14:00:01,15.73195495,0.0001087,53.214,296.7305,117.618,286.5474,0.00016904,0.00023164,0.0,0 STARLINK-3643,1 51992U 22025AN  22109.58334491  .00023164  00000-0  16904-3 0  9997,2 51992  53.2140 296.7305 0001087 117.6180 286.5474 15.73195495  3700,6727.908,91.533,350.504,349.042,0.0
51992.0,STARLINK-3643,PAYLOAD,2022-04-19 20:00:01,15.73223958,0.0001059,53.2137,295.4948,104.6964,276.1737,-0.00034748,-0.00049151,0.0,0 STARLINK-3643,1 51992U 22025AN  22109.83334491 -.00049151  00000-0 -34748-3 0  9997,2 51992  53.2137 295.4948 0001059 104.6964 276.1737 15.73223958  7785,6727.8269999999975,91.532,350.404,348.97900000000016,0.0
51992.0,STARLINK-3643,PAYLOAD,2022-04-20 12:00:00,15.73156694,0.0001345,53.2136,292.1936,113.7723,84.9368,0.00058762,0.00082509,0.0,0 STARLINK-3643,1 51992U 22025AN  22110.50001157  .00082509  00000-0  58762-3 0  9997,2 51992  53.2136 292.1936 0001345 113.7723  84.9368 15.73156694  7885,6728.019,91.536,350.789,348.97900000000016,0.0
51992.0,STARLINK-3643,PAYLOAD,2022-04-20 14:00:01,15.73190686,0.0001279,53.2137,291.7817,111.8598,199.065,0.0002345,0.00032404,0.0,0 STARLINK-3643,1 51992U 22025AN  22110.58334491  .00032404  00000-0  23450-3 0  9990,2 51992  53.2137 291.7817 0001279 111.8598 199.0650 15.73190686  3702,6727.922,91.534,350.647,348.926,0.0
51992.0,STARLINK-3643,PAYLOAD,2022-04-20 20:00:01,15.73229629,0.0001119,53.2137,290.5462,101.6625,185.9607,-0.00027228,-0.00038705,0.0,0 STARLINK-3643,1 51992U 22025AN  22110.83334491 -.00038705  00000-0 -27228-3 0  9997,2 51992  53.2137 290.5462 0001119 101.6625 185.9607 15.73229629  7942,6727.811,91.531,350.42900000000014,348.923,0.0
51992.0,STARLINK-3643,PAYLOAD,2022-04-20 22:00:00,15.73197555,0.0001023,53.2138,290.1341,100.9257,298.9445,0.00018345,0.000252,0.0,0 STARLINK-3643,1 51992U 22025AN  22110.91667824  .00025200  00000-0  18345-3 0  9999,2 51992  53.2138 290.1341 0001023 100.9257 298.9445 15.73197555  3686,6727.901999999999,91.533,350.455,349.079,0.0
51992.0,STARLINK-3643,PAYLOAD,2022-04-21 04:00:00,15.73355062,8.99e-05,53.2151,288.8879,99.0436,277.4841,-0.0028834,-0.00389657,0.0,0 STARLINK-3643,1 51992U 22025AN  22111.16667824 -.00389657  00000-0 -28834-2 0  9991,2 51992  53.2151 288.8879 0000899  99.0436 277.4841 15.73355062  7997,6727.453,91.524,349.923,348.713,0.0
51992.0,STARLINK-3643,PAYLOAD,2022-04-21 14:00:01,15.73196929,0.0001103,53.214,286.8332,105.9699,111.7606,0.00015123,0.00020653,0.0,0 STARLINK-3643,1 51992U 22025AN  22111.58334491  .00020653  00000-0  15123-3 0  9992,2 51992  53.2140 286.8332 0001103 105.9699 111.7606 15.73196929  3714,6727.904,91.533,350.511,349.027,0.0
51992.0,STARLINK-3643,PAYLOAD,2022-04-21 22:00:00,15.7319805,9.25e-05,53.2134,285.1853,89.0999,217.6067,0.00042352,0.00059233,0.0,0 STARLINK-3643,1 51992U 22025AN  22111.91667824  .00059233  00000-0  42352-3 0  9998,2 51992  53.2134 285.1853 0000925  89.0999 217.6067 15.73198050  3717,6727.901,91.533,350.38800000000015,349.14300000000014,0.0
51992.0,STARLINK-3643,PAYLOAD,2022-04-22 04:00:01,15.73238841,8.120000000000001e-05,53.2131,283.9465,98.701,184.7763,0.00024714,0.00034263,0.0,0 STARLINK-3643,1 51992U 22025AN  22112.16668981  .00034263  00000-0  24714-3 0  9999,2 51992  53.2131 283.9465 0000812  98.7010 184.7763 15.73238841  8158,6727.784000000002,91.531,350.196,349.103,0.0
51992.0,STARLINK-3643,PAYLOAD,2022-04-22 12:00:00,15.732758300000002,0.0001,53.2134,282.2963,103.1492,269.2285,-0.00042338,-0.00059808,0.0,0 STARLINK-3643,1 51992U 22025AN  22112.50001157 -.00059808  00000-0 -42338-3 0  9999,2 51992  53.2134 282.2963 0001000 103.1492 269.2285 15.73275830  8204,6727.679,91.529,350.217,348.871,0.0
51992.0,STARLINK-3643,PAYLOAD,2022-04-22 14:00:01,15.73279992,0.0001045,53.2134,281.8844,98.963,25.6647,-0.00068812,-0.00096419,0.0,0 STARLINK-3643,1 51992U 22025AN  22112.58334491 -.00096419  00000-0 -68812-3 0  9991,2 51992  53.2134 281.8844 0001045  98.9630  25.6647 15.73279992  3700,6727.667,91.529,350.235,348.829,0.0
51992.0,STARLINK-3643,PAYLOAD,2022-04-23 04:00:00,15.73169915,0.0001065,53.2135,278.9977,88.12200000000001,102.1748,-0.0004416,-0.00062059,0.0,0 STARLINK-3643,1 51992U 22025AN  22113.16667824 -.00062059  00000-0 -44160-3 0  9998,2 51992  53.2135 278.9977 0001065  88.1220 102.1748 15.73169915  8300,6727.981,91.535,350.56199999999984,349.129,0.0
51992.0,STARLINK-3643,PAYLOAD,2022-04-23 12:00:00,15.73148389,0.000117,53.2135,277.3477,92.8729,186.2847,0.00044882,0.00062701,0.0,0 STARLINK-3643,1 51992U 22025AN  22113.50001157  .00062701  00000-0  44882-3 0  9990,2 51992  53.2135 277.3477 0001170  92.8729 186.2847 15.73148389  8362,6728.042,91.536,350.695,349.12,0.0
51992.0,STARLINK-3643,PAYLOAD,2022-04-23 14:00:01,15.73175885,0.0001147,53.2134,276.936,88.1842,303.1895,0.0002601,0.00036002,0.0,0 STARLINK-3643,1 51992U 22025AN  22113.58334491  .00036002  00000-0  26010-3 0  9996,2 51992  53.2134 276.9360 0001147  88.1842 303.1895 15.73175885  3667,6727.964,91.535,350.601,349.057,0.0
51992.0,STARLINK-3643,PAYLOAD,2022-04-24 04:00:00,15.73192474,8.340000000000001e-05,53.2126,274.0489,82.1,14.9038,0.00046301,0.00064842,0.0,0 STARLINK-3643,1 51992U 22025AN  22114.16667824  .00064842  00000-0  46301-3 0  9998,2 51992  53.2126 274.0489 0000834  82.1000  14.9038 15.73192474  8463,6727.917,91.534,350.343,349.221,0.0
51992.0,STARLINK-3643,PAYLOAD,2022-04-24 14:00:01,15.73287674,9.03e-05,53.2127,271.9872,80.4524,217.7338,-0.00075101,-0.001051,0.0,0 STARLINK-3643,1 51992U 22025AN  22114.58334491 -.00105100  00000-0 -75101-3 0  9990,2 51992  53.2127 271.9872 0000903  80.4524 217.7338 15.73287674  3700,6727.645,91.528,350.11800000000005,348.903,0.0
51992.0,STARLINK-3643,PAYLOAD,2022-04-24 20:00:01,15.73216393,0.0001036,53.2128,270.7514,67.8273,207.1025,-0.00024974,-0.00035545,0.0,0 STARLINK-3643,1 51992U 22025AN  22114.83334491 -.00035545  00000-0 -24974-3 0  9995,2 51992  53.2128 270.7514 0001036  67.8273 207.1025 15.73216393  8575,6727.848000000001,91.532,350.41,349.016,0.0
51992.0,STARLINK-3643,PAYLOAD,2022-04-25 14:00:01,15.73161291,0.000132,53.2129,267.0384,71.9705,132.9992,0.00017193,0.00023537,0.0,0 STARLINK-3643,1 51992U 22025AN  22115.58334491  .00023537  00000-0  17193-3 0  9999,2 51992  53.2129 267.0384 0001320  71.9705 132.9992 15.73161291  3728,6728.005999999999,91.535,350.759,348.982,0.0
51992.0,STARLINK-3643,PAYLOAD,2022-04-25 20:00:01,15.73156005,0.0001364,53.2127,265.8023,63.58600000000001,118.0614,0.00082264,0.00116222,0.0,0 STARLINK-3643,1 51992U 22025AN  22115.83334491  .00116222  00000-0  82264-3 0  9992,2 51992  53.2127 265.8023 0001364  63.5860 118.0614 15.73156005  8727,6728.021,91.536,350.80300000000005,348.968,0.0
51992.0,STARLINK-3643,PAYLOAD,2022-04-25 22:00:00,15.73188982,0.0001301,53.2122,265.3898,61.0588,232.8081,0.0005512,0.00077417,0.0,0 STARLINK-3643,1 51992U 22025AN  22115.91667824  .00077417  00000-0  55120-3 0  9993,2 51992  53.2122 265.3898 0001301  61.0588 232.8081 15.73188982  3703,6727.927,91.534,350.667,348.916,0.0
